#cP2022  3 24 18  0  0.00000000     576 d+D   IGb14 EXT AIUB
## 2202 410400.00000000   300.00000000 59662 0.7500000000000
+   76   G01G02G03G04G05G06G07G08G09G10G11G12G13G14G15G16G17
+        G18G19G21G22G23G24G25G26G27G28G29G30G31G32R01R02R03
+        R04R05R07R08R09R12R13R14R15R17R18R19R20R21R22R24E01
+        E02E03E04E05E07E08E09E10E11E12E13E14E15E18E19E21E24
+        E25E26E27E30E31E33E34E36  0  0  0  0  0  0  0  0  0
++         6  7  6  8  7  7  7  6  6  6  8  7  7  7  7  7  7
++         8  7  8  8  7  6  6  5  6  7  7  6  7  6  8  7  7
++         7  7  7  6  8  7  8  7  7  8  7  8  9  9  7  8  5
++         5  5  6  6  6  6  6  7  6  7  6  6  6  6  6  6  5
++         6  6  5  6  6  6  7  6  0  0  0  0  0  0  0  0  0
%c M  cc GPS ccc cccc cccc cccc cccc ccccc ccccc ccccc ccccc
%c cc cc ccc ccc cccc cccc cccc cccc ccccc ccccc ccccc ccccc
%f  1.2500000  1.025000000  0.00000000000  0.000000000000000
%f  0.0000000  0.000000000  0.00000000000  0.000000000000000
%i    0    0    0    0      0      0      0      0         0
%i    0    0    0    0      0      0      0      0         0
/* Center for Orbit Determination in Europe (CODE)          
/* Ultra-rapid GRE orbits starting year-day 22083 18 hour   
/* Observed/predicted: 24/24 hours (data used up to 084R)   
/* PCV:IGS14      OL/AL:FES2014b NONE     YN ORB:CoN CLK:BRD
*  2022  3 25 19  5  0.00000000
PG01  13303.522729 -17982.536294  13753.338151    400.351724               P   P
PG02 -14393.913098  -3774.048910 -21338.499398   -652.632143               P   P
PG03  21415.178136 -13143.886120  -8532.918657   -179.250798               P   P
PG04  12465.231023  -8991.124050 -21659.084491   -181.034298               P   P
PG05 -25378.505268   4187.367546  -7093.509326    -75.952348               P   P
PG06  -6822.426517 -19708.604214 -16332.003970    243.623507               P   P
PG07   4876.166875 -25824.276427    934.933333    317.743645               P   P
PG08  19542.819710    224.799036  18113.319441    -61.273285               P   P
PG09   1614.505579 -17382.767371 -20073.481337   -347.741837               P   P
PG10   5867.339777  13873.612549  22029.601910   -358.006928               P   P
PG11 -14306.550927  -5190.835822 -21773.121467    -55.669415               P   P
PG12 -23883.557277  10060.016891  -5757.690421   -190.344899               P   P
PG13 -20597.207318  -9662.796690  13689.851639    282.920115               P   P
PG14  -4265.439159 -14778.335254  21647.269035    -97.182842               P   P
PG15 -19395.517856   2628.520015  17685.044750    -74.022098               P   P
PG16  24645.813416   1775.617772 -10610.449601   -484.701353               P   P
PG17 -11869.817277 -21677.122468  10091.167404    591.927647               P   P
PG18  -5705.834899  25878.884032    359.802753    211.441321               P   P
PG19 -16796.266224 -20591.357593   1956.274272    135.745804               P   P
PG21  15573.484833  -7225.300723  20753.210308    159.798101               P   P
PG22  18249.574483  19433.759438    148.985864    233.074889               P   P
PG23  -6739.549673  16687.259607  19492.158685     -9.786667               P   P
PG24 -14233.535679  14495.814327  16596.026654    264.464152               P   P
PG25 -13663.100290  16396.384974 -15917.226054    303.200375               P   P
PG26  17002.514726   8241.541736 -18868.852803    193.622315               P   P
PG27  22265.641073  11029.854480   9717.857790    165.288902               P   P
PG28 -12850.470888 -11595.620599  20599.680999    374.855652               P   P
PG29  -4195.053740  15836.070651 -20943.512111   -495.557736               P   P
PG30   -917.204284 -24950.743863   8763.340974   -520.576345               P   P
PG31   8876.928393  17450.137904 -17856.261703   -170.530417               P   P
PG32  15581.899252  20456.451529   7167.698659    -91.905144               P   P
PR01 -18161.593254 -11521.592957 -13718.938011      7.364899               P   P
PR02 -24456.947816  -4331.635259   5716.502720    513.584044               P   P
PR03 -15297.591814   5382.065374  19719.067791     53.742792               P   P
PR04   2217.705097  11653.135093  22615.734617    133.593755               P   P
PR05  18522.655880  11754.598450  13051.573007     89.998452               P   P
PR07  14782.960001  -5639.027504 -19980.400408     33.085234               P   P
PR08  -2349.831419 -11744.574416 -22456.483558    -64.224936               P   P
PR09  18077.534200  -6518.401188 -16721.354742     46.267566               P   P
PR12  -6917.444974  -8626.865704  23006.860616     17.587823               P   P
PR13 -17546.362401   5659.707917  17605.922657    -19.938685               P   P
PR14 -18448.143627  17601.959279    939.185351     75.781718               P   P
PR15  -8340.679578  18515.045309 -15421.930046     97.302720               P   P
PR17  -6350.903890  13453.115934 -20703.967273    512.396301               P   P
PR18   2034.604304  24125.173048  -8112.806038    111.447335               P   P
PR19   8323.975720  22853.964509   7694.067880   -182.925615               P   P
PR20  11281.860179   6282.737601  22015.114469    -67.386573               P   P
PR21   5685.268127 -14764.544243  20014.243875   -288.148897               P   P
PR22  -2317.997713 -24275.839890   7285.209456   -172.840441               P   P
PR24 -11781.653980  -5132.831820 -22019.207673     86.053590               P   P
PE01   3813.380013 -18753.453390  22580.460570   -603.719277               P   P
PE02  -3600.723053  18708.833950 -22654.354647    288.583334               P   P
PE03   7927.582637  21496.449763  18737.839205   -541.124503               P   P
PE04 -23154.533088 -18238.874755  -2701.461817   -992.312553               P   P
PE05 -12243.797729  12173.070024  24049.713615   -197.002712               P   P
PE07  25003.234403   4106.720156 -15286.568580   -651.951250               P   P
PE08  23388.711327  17976.597991   2387.048552   -501.209385               P   P
PE09 -24909.622660  -3910.426739  15521.456531   -461.611975               P   P
PE10 -14941.850942  -8738.138027 -24016.191415   -502.653858               P   P
PE11 -16233.753249   3446.156277 -24519.601662   4136.719354               P   P
PE12 -11426.208996 -18930.793719 -19665.534548   4695.641813               P   P
PE13  16150.389094  -2649.769412  24667.321668    427.555349               P   P
PE14 -22417.809556   4471.079866 -23030.689801  -1790.876964               P   P
PE15  11343.327497  19066.919682  19607.727430    755.633747               P   P
PE18  12977.323849  -8125.824267  18082.512565  -1641.892039               P   P
PE19  -5509.327488 -20911.361951 -20200.486206  -1916.107706               P   P
PE21  21252.635385 -17840.952168  10311.934299   -724.625315               P   P
PE24 -27398.815613   5553.187693   9668.782854   -525.041929               P   P
PE25 -21421.349483  17753.670249 -10089.652275   -568.065809               P   P
PE26  11163.232596 -23355.883568  14354.355530   -954.060531               P   P
PE27  27556.929304  -6611.081163  -8577.967048   -261.304189               P   P
PE30  16693.298629   9257.162321 -22642.376570   -377.625491               P   P
PE31 -17583.471519  -8425.739487  22270.519404   -494.066608               P   P
PE33    136.348698 -29438.695316  -3002.422132   -458.228809               P   P
PE34     46.830423  29426.371721   3204.902187   -508.638424               P   P
PE36 -11436.993039  22687.595546 -15195.847663   -350.369638               P   P
EOF
